[{"OBJECT_NAME":"STARLINK-32377","OBJECT_ID":"2024-204Q","EPOCH":"2026-03-09T10:56:32.334720","MEAN_MOTION":15.30191472,"ECCENTRICITY":7.002e-5,"INCLINATION":53.1601,"RA_OF_ASC_NODE":128.0286,"ARG_OF_PERICENTER":64.339,"MEAN_ANOMALY":295.7684,"EPHEMERIS_TYPE":0,"CLASSIFICATION_TYPE":"U","NORAD_CAT_ID":61888,"ELEMENT_SET_NO":999,"REV_AT_EPOCH":7505,"BSTAR":-1.1329003e-5,"MEAN_MOTION_DOT":-6.94e-6,"MEAN_MOTION_DDOT":0},{"OBJECT_NAME":"PSLV R\/B","OBJECT_ID":"2020-081L","EPOCH":"2026-03-09T11:07:47.822880","MEAN_MOTION":15.35733047,"ECCENTRICITY":0.00238531,"INCLINATION":36.845,"RA_OF_ASC_NODE":143.8276,"ARG_OF_PERICENTER":144.7418,"MEAN_ANOMALY":215.4916,"EPHEMERIS_TYPE":0,"CLASSIFICATION_TYPE":"U","NORAD_CAT_ID":46915,"ELEMENT_SET_NO":999,"REV_AT_EPOCH":29573,"BSTAR":0.00039539958,"MEAN_MOTION_DOT":0.00014147,"MEAN_MOTION_DDOT":0}]
